NORAD_CAT_ID,OBJECT_NAME,OBJECT_TYPE,EPOCH,MEAN_MOTION,ECCENTRICITY,INCLINATION,RA_OF_ASC_NODE,ARG_OF_PERICENTER,MEAN_ANOMALY,BSTAR,MEAN_MOTION_DOT,MEAN_MOTION_DDOT,TLE_LINE0,TLE_LINE1,TLE_LINE2,SEMIMAJOR_AXIS,PERIOD,APOGEE,PERIGEE,DECAYED
53837.0,STARLINK-4776,PAYLOAD,2022-11-19 14:00:01,15.21457013,0.0001703,53.2168,318.4748,39.4472,230.2665,-0.050518,-0.01053568,0.0,0 STARLINK-4776,1 53837U 22114V   22323.58334491 -.01053568  00000-0 -50518-1 0  9995,2 53837  53.2168 318.4748 0001703  39.4472 230.2665 15.21457013  1305,6879.581999999999,94.646,502.619,500.275,0.0
53837.0,STARLINK-4776,PAYLOAD,2022-11-19 22:00:00,15.20656733,0.0001663,53.2171,316.9485,40.3252,255.7116,-0.052689,-0.01071563,0.0,0 STARLINK-4776,1 53837U 22114V   22323.91667824 -.01071563  00000-0 -52689-1 0  9997,2 53837  53.2171 316.9485 0001663  40.3252 255.7116 15.20656733  1304,6881.995,94.696,505.005,502.716,0.0
53837.0,STARLINK-4776,PAYLOAD,2022-11-20 14:00:01,15.19128429,0.0001814,53.2168,313.9057,31.2838,314.4296,-0.0627679999999999,-0.01223934,0.0,0 STARLINK-4776,1 53837U 22114V   22324.58334491 -.01223934  00000-0 -62768-1 0  9992,2 53837  53.2168 313.9057 0001814  31.2838 314.4296 15.19128429 10361,6886.61,94.791,509.725,507.226,0.0
53837.0,STARLINK-4776,PAYLOAD,2022-11-20 22:00:00,15.18258353,0.0001788,53.2173,312.3845,34.0659,335.0718,-0.05993,-0.01145837,0.0,0 STARLINK-4776,1 53837U 22114V   22324.91667824 -.01145837  00000-0 -59930-1 0  9990,2 53837  53.2173 312.3845 0001788  34.0659 335.0718 15.18258353  1308,6889.241,94.846,512.3380000000002,509.874,0.0
53837.0,STARLINK-4776,PAYLOAD,2022-11-21 08:00:01,15.17250629,0.0001757,53.2174,310.4905,44.6636,82.3383,-0.062535,-0.0116009,0.0,0 STARLINK-4776,1 53837U 22114V   22325.33334491 -.01160090  00000-0 -62535-1 0  9991,2 53837  53.2174 310.4905 0001757  44.6636  82.3383 15.17250629 10478,6892.291,94.909,515.367,512.945,0.0
53837.0,STARLINK-4776,PAYLOAD,2022-11-21 14:00:01,15.16651619,0.0001814,53.2169,309.3536,35.9667,17.0176,-0.0645,-0.01174834,0.0,0 STARLINK-4776,1 53837U 22114V   22325.58334491 -.01174834  00000-0 -64500-1 0  9993,2 53837  53.2169 309.3536 0001814  35.9667  17.0176 15.16651619  1300,6894.106,94.946,517.222,514.72,0.0
53837.0,STARLINK-4776,PAYLOAD,2022-11-21 22:00:00,15.15823554,0.0001714,53.217,307.8387,41.5818,31.8717,-0.064773,-0.0115385,0.0,0 STARLINK-4776,1 53837U 22114V   22325.91667824 -.01153850  00000-0 -64773-1 0  9996,2 53837  53.2170 307.8387 0001714  41.5818  31.8717 15.15823554  1302,6896.616,94.998,519.664,517.299,0.0
53837.0,STARLINK-4776,PAYLOAD,2022-11-22 08:00:01,15.14830774,0.0001725,53.2174,305.9517,52.0475,135.5949,-0.0686929999999999,-0.0118666,0.0,0 STARLINK-4776,1 53837U 22114V   22326.33334491 -.01186660  00000-0 -68693-1 0  9994,2 53837  53.2174 305.9517 0001725  52.0475 135.5949 15.14830774 10623,6899.629,95.06,522.685,520.304,0.0
53837.0,STARLINK-4776,PAYLOAD,2022-11-22 14:00:01,15.14204972,0.0001896,53.217,304.8185,38.1191,73.3836,-0.068657,-0.01166858,0.0,0 STARLINK-4776,1 53837U 22114V   22326.58335648 -.01166858  00000-0 -68657-1 0  9993,2 53837  53.2170 304.8185 0001896  38.1191  73.3836 15.14204972  1301,6901.53,95.099,524.7040000000002,522.087,0.0
53837.0,STARLINK-4776,PAYLOAD,2022-11-22 22:00:00,15.13394604,0.0001815,53.2172,303.3095,42.7228,86.2438,-0.070489,-0.01170503,0.0,0 STARLINK-4776,1 53837U 22114V   22326.91667824 -.01170503  00000-0 -70489-1 0  9992,2 53837  53.2172 303.3095 0001815  42.7228  86.2438 15.13394604  1302,6903.994000000002,95.15,527.112,524.606,0.0
53837.0,STARLINK-4776,PAYLOAD,2022-11-23 08:00:01,15.123606099999998,0.0001551999999999,53.2175,301.4292,60.0737,179.4358,-0.071018,-0.01147339,0.0,0 STARLINK-4776,1 53837U 22114V   22327.33334491 -.01147339  00000-0 -71018-1 0  9990,2 53837  53.2175 301.4292 0001552  60.0737 179.4358 15.12360610 10775,6907.14,95.215,530.077,527.933,0.0
53837.0,STARLINK-4776,PAYLOAD,2022-11-23 14:00:01,15.11772653,0.0001776999999999,53.2171,300.3005,43.6568,117.4302,-0.074327,-0.0117852,0.0,0 STARLINK-4776,1 53837U 22114V   22327.58334491 -.01178520  00000-0 -74327-1 0  9999,2 53837  53.2171 300.3005 0001777  43.6568 117.4302 15.11772653  1302,6908.931,95.252,532.024,529.568,0.0
53837.0,STARLINK-4776,PAYLOAD,2022-11-23 22:00:00,15.10958918,0.0001876,53.2173,298.7973,42.4075,133.2735,-0.075869,-0.01176163,0.0,0 STARLINK-4776,1 53837U 22114V   22327.91667824 -.01176163  00000-0 -75869-1 0  9998,2 53837  53.2173 298.7973 0001876  42.4075 133.2735 15.10958918  1303,6911.411,95.304,534.573,531.98,0.0
53837.0,STARLINK-4776,PAYLOAD,2022-11-24 08:00:01,15.09846206,0.0001587,53.2175,296.9241,57.5856,224.9902,-0.063757,-0.00961442,0.0,0 STARLINK-4776,1 53837U 22114V   22328.33334491 -.00961442  00000-0 -63757-1 0  9990,2 53837  53.2175 296.9241 0001587  57.5856 224.9902 15.09846206 10922,6914.807,95.374,537.769,535.5740000000002,0.0
53837.0,STARLINK-4776,PAYLOAD,2022-11-24 14:00:01,15.09219087,0.0001667,53.2173,295.7999,48.4553,153.4946,-0.033094,-0.00501898,0.0,0 STARLINK-4776,1 53837U 22114V   22328.58334491 -.00501898  00000-0 -33094-1 0  9993,2 53837  53.2173 295.7999 0001667  48.4553 153.4946 15.09219087  1306,6916.722,95.414,539.74,537.434,0.0
53837.0,STARLINK-4776,PAYLOAD,2022-11-24 22:00:00,15.08902422,0.0001527,53.2175,294.3044,50.1077,163.6009,-0.0037846,-0.0006012,0.0,0 STARLINK-4776,1 53837U 22114V   22328.91667824 -.00060120  00000-0 -37846-2 0  9997,2 53837  53.2175 294.3044 0001527  50.1077 163.6009 15.08902422 11013,6917.69,95.434,540.611,538.498,0.0
53837.0,STARLINK-4776,PAYLOAD,2022-11-25 14:00:01,15.08873457,0.0001636999999999,53.217,291.3122,46.6478,190.3225,-0.002239,-0.00035778,0.0,0 STARLINK-4776,1 53837U 22114V   22329.58334491 -.00035778  00000-0 -22390-2 0  9991,2 53837  53.2170 291.3122 0001637  46.6478 190.3225 15.08873457  1302,6917.778,95.435,540.776,538.511,0.0
53837.0,STARLINK-4776,PAYLOAD,2022-11-25 22:00:00,15.08857121,0.000162,53.2171,289.8154,54.4473,194.1454,-0.00055932,-9.183e-05,0.0,0 STARLINK-4776,1 53837U 22114V   22329.91667824 -.00009183  00000-0 -55932-3 0  9997,2 53837  53.2171 289.8154 0001620  54.4473 194.1454 15.08857121  1300,6917.828,95.436,540.814,538.572,0.0
53837.0,STARLINK-4776,PAYLOAD,2022-11-26 06:00:00,15.08870701,0.0001848,53.2169,288.3208,44.4686,215.7524,-0.0035656,-0.00056637,0.0,0 STARLINK-4776,1 53837U 22114V   22330.25001157 -.00056637  00000-0 -35656-2 0  9993,2 53837  53.2169 288.3208 0001848  44.4686 215.7524 15.08870701 11216,6917.7869999999975,95.436,540.93,538.373,0.0
53837.0,STARLINK-4776,PAYLOAD,2022-11-26 14:00:01,15.08835958,0.0001653,53.2166,286.8232,42.4621,229.3661,-0.0018325,-0.00029331,0.0,0 STARLINK-4776,1 53837U 22114V   22330.58334491 -.00029331  00000-0 -18325-2 0  9994,2 53837  53.2166 286.8232 0001653  42.4621 229.3661 15.08835958  1301,6917.893,95.438,540.901,538.614,0.0
53837.0,STARLINK-4776,PAYLOAD,2022-11-26 22:00:00,15.08831433,0.0001622,53.2166,285.3266,48.528,234.8718,0.00083557,0.00013032,0.0,0 STARLINK-4776,1 53837U 22114V   22330.91667824  .00013032  00000-0  83557-3 0  9999,2 53837  53.2166 285.3266 0001622  48.5280 234.8718 15.08831433 11316,6917.906999999997,95.438,540.894,538.649,0.0
53837.0,STARLINK-4776,PAYLOAD,2022-11-27 14:00:01,15.0883561,0.0001814,53.2164,282.3344,46.6077,259.9775,-0.001314,-0.00021137,0.0,0 STARLINK-4776,1 53837U 22114V   22331.58334491 -.00021137  00000-0 -13140-2 0  9991,2 53837  53.2164 282.3344 0001814  46.6077 259.9775 15.08835610  1304,6917.894,95.438,541.014,538.504,0.0
53837.0,STARLINK-4776,PAYLOAD,2022-11-27 22:00:00,15.08837255,0.0001812,53.2164,280.8377,51.1967,266.9608,0.00025782,3.817e-05,0.0,0 STARLINK-4776,1 53837U 22114V   22331.91667824  .00003817  00000-0  25782-3 0  9996,2 53837  53.2164 280.8377 0001812  51.1967 266.9608 15.08837255  1300,6917.889,95.438,541.007,538.5,0.0
53837.0,STARLINK-4776,PAYLOAD,2022-11-28 00:00:00,15.08853645,0.0001861,53.2163,280.4643,48.9836,2.0677,-0.0022032,-0.00035195,0.0,0 STARLINK-4776,1 53837U 22114V   22332.00001157 -.00035195  00000-0 -22032-2 0  9998,2 53837  53.2163 280.4643 0001861  48.9836   2.0677 15.08853645 11480,6917.839,95.437,540.991,538.4159999999998,0.0
53837.0,STARLINK-4776,PAYLOAD,2022-11-28 16:00:00,15.08812209,0.0001768,53.2163,277.4709,47.3991,26.8436,0.0028545,0.000454,0.0,0 STARLINK-4776,1 53837U 22114V   22332.66667824  .00045400  00000-0  28545-2 0  9992,2 53837  53.2163 277.4709 0001768  47.3991  26.8436 15.08812209 11589,6917.965,95.439,541.053,538.607,0.0
53837.0,STARLINK-4776,PAYLOAD,2022-11-28 22:00:01,15.08846414,0.0001839,53.2164,276.3488,49.4483,303.5295,0.00022703,3.328e-05,0.0,0 STARLINK-4776,1 53837U 22114V   22332.91668981  .00003328  00000-0  22703-3 0  9999,2 53837  53.2164 276.3488 0001839  49.4483 303.5295 15.08846414  1302,6917.861,95.437,540.998,538.4540000000002,0.0
53837.0,STARLINK-4776,PAYLOAD,2022-11-29 06:00:00,15.08839114,0.0001993,53.2164,274.8541,43.3393,321.1824,8.2233e-06,-1.57e-06,0.0,0 STARLINK-4776,1 53837U 22114V   22333.25001157 -.00000157  00000-0  82233-5 0  9997,2 53837  53.2164 274.8541 0001993  43.3393 321.1824 15.08839114 11673,6917.8830000000025,95.438,541.127,538.369,0.0
53837.0,STARLINK-4776,PAYLOAD,2022-11-29 14:00:01,15.08833747,0.0001788,53.2164,273.3561,43.2725,332.9093,-0.0023057,-0.0003679,0.0,0 STARLINK-4776,1 53837U 22114V   22333.58335648 -.00036790  00000-0 -23057-2 0  9997,2 53837  53.2164 273.3561 0001788  43.2725 332.9093 15.08833747  1302,6917.9,95.438,541.001,538.528,0.0
53837.0,STARLINK-4776,PAYLOAD,2022-11-29 22:00:00,15.08826744,0.0001774999999999,53.2166,271.8599,45.2473,342.4355,-0.00027831,-4.713e-05,0.0,0 STARLINK-4776,1 53837U 22114V   22333.91667824 -.00004713  00000-0 -27831-3 0  9993,2 53837  53.2166 271.8599 0001775  45.2473 342.4355 15.08826744 11774,6917.920999999999,95.438,541.014,538.558,0.0
